[{"OBJECT_NAME":"STARLINK-37069","OBJECT_ID":"2026-049S","EPOCH":"2026-04-08T04:40:50.067552","MEAN_MOTION":15.75245727,"ECCENTRICITY":9.825e-5,"INCLINATION":97.285,"RA_OF_ASC_NODE":118.9071,"ARG_OF_PERICENTER":83.8219,"MEAN_ANOMALY":276.3158,"EPHEMERIS_TYPE":0,"CLASSIFICATION_TYPE":"U","NORAD_CAT_ID":68158,"ELEMENT_SET_NO":999,"REV_AT_EPOCH":406,"BSTAR":0.0013859437,"MEAN_MOTION_DOT":0.00212325,"MEAN_MOTION_DDOT":0},{"OBJECT_NAME":"STARLINK-37053","OBJECT_ID":"2026-049T","EPOCH":"2026-04-08T04:02:43.227168","MEAN_MOTION":15.75254117,"ECCENTRICITY":0.00012119,"INCLINATION":97.2851,"RA_OF_ASC_NODE":118.9441,"ARG_OF_PERICENTER":70.6163,"MEAN_ANOMALY":289.5233,"EPHEMERIS_TYPE":0,"CLASSIFICATION_TYPE":"U","NORAD_CAT_ID":68159,"ELEMENT_SET_NO":999,"REV_AT_EPOCH":406,"BSTAR":0.0014486738,"MEAN_MOTION_DOT":0.00222283,"MEAN_MOTION_DDOT":0},{"OBJECT_NAME":"STARLINK-36306","OBJECT_ID":"2026-049U","EPOCH":"2026-04-08T07:38:12.086880","MEAN_MOTION":15.75235467,"ECCENTRICITY":0.00015063,"INCLINATION":97.2848,"RA_OF_ASC_NODE":119.0461,"ARG_OF_PERICENTER":111.2706,"MEAN_ANOMALY":248.872,"EPHEMERIS_TYPE":0,"CLASSIFICATION_TYPE":"U","NORAD_CAT_ID":68160,"ELEMENT_SET_NO":999,"REV_AT_EPOCH":408,"BSTAR":0.0011783675,"MEAN_MOTION_DOT":0.00179733,"MEAN_MOTION_DDOT":0},{"OBJECT_NAME":"STARLINK-37057","OBJECT_ID":"2026-049V","EPOCH":"2026-04-08T03:59:40.188768","MEAN_MOTION":15.75261147,"ECCENTRICITY":0.00011013,"INCLINATION":97.2849,"RA_OF_ASC_NODE":118.9469,"ARG_OF_PERICENTER":57.9934,"MEAN_ANOMALY":302.1438,"EPHEMERIS_TYPE":0,"CLASSIFICATION_TYPE":"U","NORAD_CAT_ID":68161,"ELEMENT_SET_NO":999,"REV_AT_EPOCH":406,"BSTAR":0.0015813869,"MEAN_MOTION_DOT":0.00243338,"MEAN_MOTION_DDOT":0},{"OBJECT_NAME":"STARLINK-37013","OBJECT_ID":"2026-049W","EPOCH":"2026-04-08T05:02:52.740960","MEAN_MOTION":15.80920853,"ECCENTRICITY":9.771e-5,"INCLINATION":97.2844,"RA_OF_ASC_NODE":119.0397,"ARG_OF_PERICENTER":113.7158,"MEAN_ANOMALY":246.4213,"EPHEMERIS_TYPE":0,"CLASSIFICATION_TYPE":"U","NORAD_CAT_ID":68162,"ELEMENT_SET_NO":999,"REV_AT_EPOCH":407,"BSTAR":0.0014851676,"MEAN_MOTION_DOT":0.00295606,"MEAN_MOTION_DDOT":0},{"OBJECT_NAME":"STARLINK-36958","OBJECT_ID":"2026-049X","EPOCH":"2026-04-08T07:08:43.513440","MEAN_MOTION":15.75248058,"ECCENTRICITY":0.00010461,"INCLINATION":97.2853,"RA_OF_ASC_NODE":119.0748,"ARG_OF_PERICENTER":87.7814,"MEAN_ANOMALY":272.3571,"EPHEMERIS_TYPE":0,"CLASSIFICATION_TYPE":"U","NORAD_CAT_ID":68163,"ELEMENT_SET_NO":999,"REV_AT_EPOCH":408,"BSTAR":0.0012486715,"MEAN_MOTION_DOT":0.00190816,"MEAN_MOTION_DDOT":0},{"OBJECT_NAME":"STARLINK-37002","OBJECT_ID":"2026-049Y","EPOCH":"2026-04-08T00:32:39.608160","MEAN_MOTION":15.80921761,"ECCENTRICITY":0.00013845,"INCLINATION":97.2846,"RA_OF_ASC_NODE":118.8364,"ARG_OF_PERICENTER":90.5249,"MEAN_ANOMALY":269.6178,"EPHEMERIS_TYPE":0,"CLASSIFICATION_TYPE":"U","NORAD_CAT_ID":68164,"ELEMENT_SET_NO":999,"REV_AT_EPOCH":404,"BSTAR":0.001058951,"MEAN_MOTION_DOT":0.00208627,"MEAN_MOTION_DDOT":0},{"OBJECT_NAME":"STARLINK-36971","OBJECT_ID":"2026-049Z","EPOCH":"2026-04-08T07:17:52.442016","MEAN_MOTION":15.75257767,"ECCENTRICITY":0.00015893,"INCLINATION":97.2852,"RA_OF_ASC_NODE":119.0661,"ARG_OF_PERICENTER":110.798,"MEAN_ANOMALY":249.3456,"EPHEMERIS_TYPE":0,"CLASSIFICATION_TYPE":"U","NORAD_CAT_ID":68165,"ELEMENT_SET_NO":999,"REV_AT_EPOCH":408,"BSTAR":0.0014137205,"MEAN_MOTION_DOT":0.00216812,"MEAN_MOTION_DDOT":0},{"OBJECT_NAME":"STARLINK-36273","OBJECT_ID":"2026-049AA","EPOCH":"2026-04-08T07:37:10.988256","MEAN_MOTION":15.75236804,"ECCENTRICITY":0.00012786,"INCLINATION":97.285,"RA_OF_ASC_NODE":119.0471,"ARG_OF_PERICENTER":86.1293,"MEAN_ANOMALY":274.0119,"EPHEMERIS_TYPE":0,"CLASSIFICATION_TYPE":"U","NORAD_CAT_ID":68166,"ELEMENT_SET_NO":999,"REV_AT_EPOCH":408,"BSTAR":0.0011995531,"MEAN_MOTION_DOT":0.00183048,"MEAN_MOTION_DDOT":0},{"OBJECT_NAME":"STARLINK-36969","OBJECT_ID":"2026-050A","EPOCH":"2026-04-08T06:37:25.465152","MEAN_MOTION":15.79200151,"ECCENTRICITY":0.00013203,"INCLINATION":53.1559,"RA_OF_ASC_NODE":133.5702,"ARG_OF_PERICENTER":101.9864,"MEAN_ANOMALY":258.1306,"EPHEMERIS_TYPE":0,"CLASSIFICATION_TYPE":"U","NORAD_CAT_ID":68167,"ELEMENT_SET_NO":999,"REV_AT_EPOCH":515,"BSTAR":-0.004727981,"MEAN_MOTION_DOT":-0.0078979,"MEAN_MOTION_DDOT":0},{"OBJECT_NAME":"STARLINK-36984","OBJECT_ID":"2026-050B","EPOCH":"2026-04-08T06:00:00.999648","MEAN_MOTION":15.67069425,"ECCENTRICITY":0.00014552,"INCLINATION":53.16,"RA_OF_ASC_NODE":133.8523,"ARG_OF_PERICENTER":77.3523,"MEAN_ANOMALY":58.9474,"EPHEMERIS_TYPE":0,"CLASSIFICATION_TYPE":"U","NORAD_CAT_ID":68168,"ELEMENT_SET_NO":999,"REV_AT_EPOCH":519,"BSTAR":-0.02045064,"MEAN_MOTION_DOT":-0.01963488,"MEAN_MOTION_DDOT":0},{"OBJECT_NAME":"STARLINK-37077","OBJECT_ID":"2026-050C","EPOCH":"2026-04-08T06:34:46.954848","MEAN_MOTION":15.81150877,"ECCENTRICITY":0.00023421,"INCLINATION":53.156,"RA_OF_ASC_NODE":133.5578,"ARG_OF_PERICENTER":207.3697,"MEAN_ANOMALY":152.7203,"EPHEMERIS_TYPE":0,"CLASSIFICATION_TYPE":"U","NORAD_CAT_ID":68169,"ELEMENT_SET_NO":999,"REV_AT_EPOCH":515,"BSTAR":0.0025301687,"MEAN_MOTION_DOT":0.00537867,"MEAN_MOTION_DDOT":0},{"OBJECT_NAME":"STARLINK-37003","OBJECT_ID":"2026-050D","EPOCH":"2026-04-08T02:00:34.539840","MEAN_MOTION":15.80949524,"ECCENTRICITY":0.00012029,"INCLINATION":53.156,"RA_OF_ASC_NODE":134.503,"ARG_OF_PERICENTER":130.7806,"MEAN_ANOMALY":229.3321,"EPHEMERIS_TYPE":0,"CLASSIFICATION_TYPE":"U","NORAD_CAT_ID":68170,"ELEMENT_SET_NO":999,"REV_AT_EPOCH":512,"BSTAR":0.0015321671,"MEAN_MOTION_DOT":0.00314067,"MEAN_MOTION_DDOT":0},{"OBJECT_NAME":"STARLINK-37034","OBJECT_ID":"2026-050E","EPOCH":"2026-04-08T05:01:46.058304","MEAN_MOTION":15.80391919,"ECCENTRICITY":0.00042768,"INCLINATION":53.1563,"RA_OF_ASC_NODE":133.866,"ARG_OF_PERICENTER":164.2897,"MEAN_ANOMALY":195.8259,"EPHEMERIS_TYPE":0,"CLASSIFICATION_TYPE":"U","NORAD_CAT_ID":68171,"ELEMENT_SET_NO":999,"REV_AT_EPOCH":514,"BSTAR":0.0018718846,"MEAN_MOTION_DOT":0.00376995,"MEAN_MOTION_DDOT":0},{"OBJECT_NAME":"STARLINK-37031","OBJECT_ID":"2026-050F","EPOCH":"2026-04-08T01:58:27.028992","MEAN_MOTION":15.8094911,"ECCENTRICITY":0.0001922,"INCLINATION":53.1561,"RA_OF_ASC_NODE":134.4929,"ARG_OF_PERICENTER":103.3312,"MEAN_ANOMALY":256.7925,"EPHEMERIS_TYPE":0,"CLASSIFICATION_TYPE":"U","NORAD_CAT_ID":68172,"ELEMENT_SET_NO":999,"REV_AT_EPOCH":512,"BSTAR":0.0019792648,"MEAN_MOTION_DOT":0.00410526,"MEAN_MOTION_DDOT":0},{"OBJECT_NAME":"STARLINK-37076","OBJECT_ID":"2026-050G","EPOCH":"2026-04-07T13:49:02.659872","MEAN_MOTION":15.80923518,"ECCENTRICITY":7.15e-5,"INCLINATION":53.1559,"RA_OF_ASC_NODE":137.0228,"ARG_OF_PERICENTER":115.2785,"MEAN_ANOMALY":244.8312,"EPHEMERIS_TYPE":0,"CLASSIFICATION_TYPE":"U","NORAD_CAT_ID":68173,"ELEMENT_SET_NO":999,"REV_AT_EPOCH":504,"BSTAR":0.0013916,"MEAN_MOTION_DOT":0.00283842,"MEAN_MOTION_DDOT":0}]
