STARLINK-37069          
1 68158U 26049S   26098.19502393  .00212325  00000+0  13859-2 0  9998
2 68158  97.2850 118.9071 0000982  83.8219 276.3158 15.75245727  4065
STARLINK-37053          
1 68159U 26049T   26098.16855587  .00222283  00000+0  14487-2 0  9994
2 68159  97.2851 118.9441 0001211  70.6163 289.5233 15.75254117  4069
STARLINK-36306          
1 68160U 26049U   26098.31819545  .00179733  00000+0  11784-2 0  9995
2 68160  97.2848 119.0461 0001506 111.2706 248.8720 15.75235467  4081
STARLINK-37057          
1 68161U 26049V   26098.16643737  .00243338  00000+0  15814-2 0  9998
2 68161  97.2849 118.9469 0001101  57.9934 302.1438 15.75261147  4061
STARLINK-37013          
1 68162U 26049W   26098.21033265  .00295606  00000+0  14852-2 0  9990
2 68162  97.2844 119.0397 0000977 113.7158 246.4213 15.80920853  4072
STARLINK-36958          
1 68163U 26049X   26098.29772585  .00190816  00000+0  12487-2 0  9993
2 68163  97.2853 119.0748 0001046  87.7814 272.3571 15.75248058  4080
STARLINK-37002          
1 68164U 26049Y   26098.02268065  .00208627  00000+0  10590-2 0  9991
2 68164  97.2846 118.8364 0001384  90.5249 269.6178 15.80921761  4046
STARLINK-36971          
1 68165U 26049Z   26098.30407919  .00216812  00000+0  14137-2 0  9992
2 68165  97.2852 119.0661 0001589 110.7980 249.3456 15.75257767  4081
STARLINK-36273          
1 68166U 26049AA  26098.31748829  .00183048  00000+0  11996-2 0  9996
2 68166  97.2850 119.0471 0001278  86.1293 274.0119 15.75236804  4087
STARLINK-36969          
1 68167U 26050A   26098.27598918 -.00789790  00000+0 -47280-2 0  9999
2 68167  53.1559 133.5702 0001320 101.9864 258.1306 15.79200151  5151
STARLINK-36984          
1 68168U 26050B   26098.25001157 -.01963488  00000+0 -20451-1 0  9991
2 68168  53.1600 133.8523 0001455  77.3523  58.9474 15.67069425  5190
STARLINK-37077          
1 68169U 26050C   26098.27415457  .00537867  00000+0  25302-2 0  9992
2 68169  53.1560 133.5578 0002342 207.3697 152.7203 15.81150877  5153
STARLINK-37003          
1 68170U 26050D   26098.08373310  .00314067  00000+0  15322-2 0  9990
2 68170  53.1560 134.5030 0001202 130.7806 229.3321 15.80949524  5127
STARLINK-37034          
1 68171U 26050E   26098.20956086  .00376995  00000+0  18719-2 0  9993
2 68171  53.1563 133.8660 0004276 164.2897 195.8259 15.80391919  5146
STARLINK-37031          
1 68172U 26050F   26098.08225728  .00410526  00000+0  19793-2 0  9994
2 68172  53.1561 134.4929 0001922 103.3312 256.7925 15.80949110  5128
STARLINK-37076          
1 68173U 26050G   26097.57572523  .00283842  00000+0  13916-2 0  9996
2 68173  53.1559 137.0228 0000715 115.2785 244.8312 15.80923518  5045
